JILIN-1 GAOFEN 03D51    
1 54252U 22155B   26199.32685958  .00038122  00000+0  38723-3 0  9997
2 54252  97.6267 346.6047 0004564 220.1508 139.9414 15.65099066204615
JILIN-1 GAOFEN 03D53    
1 54253U 22155C   26199.32641523  .00020962  00000+0  31886-3 0  9994
2 54253  97.6257 341.7533 0005018 237.6069 122.4699 15.54554790204329
JILIN-1 GAOFEN 03D52    
1 54255U 22155E   26199.32085329  .00032056  00000+0  36468-3 0  9990
2 54255  97.6242 344.7940 0003924 234.6517 125.4374 15.62235898204562
JILIN-1 GAOFEN 03D50    
1 54690U 22167J   26199.29219139  .00005841  00000+0  17399-3 0  9994
2 54690  97.6861   8.4244 0004926  11.3553 348.7800 15.35099398200121
JILIN-1 GAOFEN 03D47    
1 54692U 22167L   26199.29753494  .00005548  00000+0  16911-3 0  9996
2 54692  97.6958  10.1684 0007530  19.2548 340.8977 15.34379633200112
JILIN-1 GAOFEN 03D49    
1 54694U 22167N   26199.30570801  .00006922  00000+0  18696-3 0  9998
2 54694  97.6835  10.8468 0005799  39.8799 320.2870 15.38085902200274
JILIN-1 GAOFEN 03D48    
1 54695U 22167P   26199.28325743  .00006014  00000+0  17492-3 0  9994
2 54695  97.6906  10.1413 0006165  19.9953 340.1530 15.35831767200163
JILIN GAOFEN OBJECT A   
1 68691U 26080A   26198.71960546  .00001863  00000+0  12114-3 0  9999
2 68691  97.6607 274.1951 0010995 325.9072  34.1449 15.09211185 14269
JILIN GAOFEN OBJECT B   
1 68692U 26080B   26199.23263072  .00002640  00000+0  17108-3 0  9990
2 68692  97.6583 274.7191 0015668 302.0627  57.9079 15.08915122 14341
JILIN GAOFEN OBJECT C   
1 68693U 26080C   26198.71884003  .00001932  00000+0  12646-3 0  9991
2 68693  97.6590 274.1766 0013165 305.9926  54.0081 15.08910570 14260
JILIN GAOFEN OBJECT D   
1 68694U 26080D   26199.23334104  .00002718  00000+0  17571-3 0  9997
2 68694  97.6647 274.7964 0016327 314.0589  45.9294 15.08974331 14326
JILIN GAOFEN OBJECT E   
1 68695U 26080E   26199.21510588  .00002622  00000+0  16996-3 0  9992
2 68695  97.6631 274.7977 0013601 324.9722  35.0611 15.08936917 14304
JILIN GAOFEN OBJECT F   
1 68696U 26080F   26199.28047348  .00002471  00000+0  16051-3 0  9993
2 68696  97.6602 274.8302 0012266 327.6328  32.4146 15.08920936 14313
JILIN GAOFEN OBJECT G   
1 68697U 26080G   26199.26656779  .00002234  00000+0  14549-3 0  9993
2 68697  97.6648 274.9024 0014425 324.2062  35.8199 15.08913176 14316
JILIN GAOFEN OBJECT H   
1 68698U 26080H   26198.73397818  .00002108  00000+0  13743-3 0  9996
2 68698  97.6635 274.3604 0014772 328.0239  32.0092 15.08938632 14230
