{"fetched_at":"2026-07-18T17:30:01.066Z","source":"https://celestrak.org/NORAD/elements/gp.php?NAME=JILIN&FORMAT=JSON","constellation":"jilin-1-gaofen","records":[{"OBJECT_NAME":"JILIN-1 GAOFEN 03D51","OBJECT_ID":"2022-155B","EPOCH":"2026-07-18T07:50:40.667712","CLASSIFICATION_TYPE":"U","MEAN_MOTION":15.65099066,"ECCENTRICITY":0.00045644,"INCLINATION":97.6267,"RA_OF_ASC_NODE":346.6047,"ARG_OF_PERICENTER":220.1508,"MEAN_ANOMALY":139.9414,"EPHEMERIS_TYPE":0,"NORAD_CAT_ID":54252,"ELEMENT_SET_NO":999,"REV_AT_EPOCH":20461,"BSTAR":0.00038722788,"MEAN_MOTION_DOT":0.00038122,"MEAN_MOTION_DDOT":0},{"OBJECT_NAME":"JILIN-1 GAOFEN 03D53","OBJECT_ID":"2022-155C","EPOCH":"2026-07-18T07:50:02.275872","CLASSIFICATION_TYPE":"U","MEAN_MOTION":15.5455479,"ECCENTRICITY":0.0005018,"INCLINATION":97.6257,"RA_OF_ASC_NODE":341.7533,"ARG_OF_PERICENTER":237.6069,"MEAN_ANOMALY":122.4699,"EPHEMERIS_TYPE":0,"NORAD_CAT_ID":54253,"ELEMENT_SET_NO":999,"REV_AT_EPOCH":20432,"BSTAR":0.00031886479,"MEAN_MOTION_DOT":0.00020962,"MEAN_MOTION_DDOT":0},{"OBJECT_NAME":"JILIN-1 GAOFEN 03D52","OBJECT_ID":"2022-155E","EPOCH":"2026-07-18T07:42:01.724256","CLASSIFICATION_TYPE":"U","MEAN_MOTION":15.62235898,"ECCENTRICITY":0.00039242,"INCLINATION":97.6242,"RA_OF_ASC_NODE":344.794,"ARG_OF_PERICENTER":234.6517,"MEAN_ANOMALY":125.4374,"EPHEMERIS_TYPE":0,"NORAD_CAT_ID":54255,"ELEMENT_SET_NO":999,"REV_AT_EPOCH":20456,"BSTAR":0.00036468305,"MEAN_MOTION_DOT":0.00032056,"MEAN_MOTION_DDOT":0},{"OBJECT_NAME":"JILIN-1 GAOFEN 03D50","OBJECT_ID":"2022-167J","EPOCH":"2026-07-18T07:00:45.336096","CLASSIFICATION_TYPE":"U","MEAN_MOTION":15.35099398,"ECCENTRICITY":0.00049262,"INCLINATION":97.6861,"RA_OF_ASC_NODE":8.4244,"ARG_OF_PERICENTER":11.3553,"MEAN_ANOMALY":348.78,"EPHEMERIS_TYPE":0,"NORAD_CAT_ID":54690,"ELEMENT_SET_NO":999,"REV_AT_EPOCH":20012,"BSTAR":0.00017399187,"MEAN_MOTION_DOT":0.00005841,"MEAN_MOTION_DDOT":0},{"OBJECT_NAME":"JILIN-1 GAOFEN 03D47","OBJECT_ID":"2022-167L","EPOCH":"2026-07-18T07:08:27.018816","CLASSIFICATION_TYPE":"U","MEAN_MOTION":15.34379633,"ECCENTRICITY":0.00075309,"INCLINATION":97.6958,"RA_OF_ASC_NODE":10.1684,"ARG_OF_PERICENTER":19.2548,"MEAN_ANOMALY":340.8977,"EPHEMERIS_TYPE":0,"NORAD_CAT_ID":54692,"ELEMENT_SET_NO":999,"REV_AT_EPOCH":20011,"BSTAR":0.00016910526,"MEAN_MOTION_DOT":0.00005548,"MEAN_MOTION_DDOT":0},{"OBJECT_NAME":"JILIN-1 GAOFEN 03D49","OBJECT_ID":"2022-167N","EPOCH":"2026-07-18T07:20:13.172064","CLASSIFICATION_TYPE":"U","MEAN_MOTION":15.38085902,"ECCENTRICITY":0.00057993,"INCLINATION":97.6835,"RA_OF_ASC_NODE":10.8468,"ARG_OF_PERICENTER":39.8799,"MEAN_ANOMALY":320.287,"EPHEMERIS_TYPE":0,"NORAD_CAT_ID":54694,"ELEMENT_SET_NO":999,"REV_AT_EPOCH":20027,"BSTAR":0.000186958,"MEAN_MOTION_DOT":0.00006922,"MEAN_MOTION_DDOT":0},{"OBJECT_NAME":"JILIN-1 GAOFEN 03D48","OBJECT_ID":"2022-167P","EPOCH":"2026-07-18T06:47:53.441952","CLASSIFICATION_TYPE":"U","MEAN_MOTION":15.35831767,"ECCENTRICITY":0.00061652,"INCLINATION":97.6906,"RA_OF_ASC_NODE":10.1413,"ARG_OF_PERICENTER":19.9953,"MEAN_ANOMALY":340.153,"EPHEMERIS_TYPE":0,"NORAD_CAT_ID":54695,"ELEMENT_SET_NO":999,"REV_AT_EPOCH":20016,"BSTAR":0.00017492403,"MEAN_MOTION_DOT":0.00006014,"MEAN_MOTION_DDOT":0},{"OBJECT_NAME":"JILIN GAOFEN OBJECT A","OBJECT_ID":"2026-080A","EPOCH":"2026-07-17T17:16:13.911744","CLASSIFICATION_TYPE":"U","MEAN_MOTION":15.09211185,"ECCENTRICITY":0.00109955,"INCLINATION":97.6607,"RA_OF_ASC_NODE":274.1951,"ARG_OF_PERICENTER":325.9072,"MEAN_ANOMALY":34.1449,"EPHEMERIS_TYPE":0,"NORAD_CAT_ID":68691,"ELEMENT_SET_NO":999,"REV_AT_EPOCH":1426,"BSTAR":0.00012113513,"MEAN_MOTION_DOT":0.00001863,"MEAN_MOTION_DDOT":0},{"OBJECT_NAME":"JILIN GAOFEN OBJECT B","OBJECT_ID":"2026-080B","EPOCH":"2026-07-18T05:34:59.294208","CLASSIFICATION_TYPE":"U","MEAN_MOTION":15.08915122,"ECCENTRICITY":0.0015668,"INCLINATION":97.6583,"RA_OF_ASC_NODE":274.7191,"ARG_OF_PERICENTER":302.0627,"MEAN_ANOMALY":57.9079,"EPHEMERIS_TYPE":0,"NORAD_CAT_ID":68692,"ELEMENT_SET_NO":999,"REV_AT_EPOCH":1434,"BSTAR":0.00017108335,"MEAN_MOTION_DOT":0.0000264,"MEAN_MOTION_DDOT":0},{"OBJECT_NAME":"JILIN GAOFEN OBJECT C","OBJECT_ID":"2026-080C","EPOCH":"2026-07-17T17:15:07.778592","CLASSIFICATION_TYPE":"U","MEAN_MOTION":15.0891057,"ECCENTRICITY":0.00131651,"INCLINATION":97.659,"RA_OF_ASC_NODE":274.1766,"ARG_OF_PERICENTER":305.9926,"MEAN_ANOMALY":54.0081,"EPHEMERIS_TYPE":0,"NORAD_CAT_ID":68693,"ELEMENT_SET_NO":999,"REV_AT_EPOCH":1426,"BSTAR":0.00012645548,"MEAN_MOTION_DOT":0.00001932,"MEAN_MOTION_DDOT":0},{"OBJECT_NAME":"JILIN GAOFEN OBJECT D","OBJECT_ID":"2026-080D","EPOCH":"2026-07-18T05:36:00.665856","CLASSIFICATION_TYPE":"U","MEAN_MOTION":15.08974331,"ECCENTRICITY":0.00163274,"INCLINATION":97.6647,"RA_OF_ASC_NODE":274.7964,"ARG_OF_PERICENTER":314.0589,"MEAN_ANOMALY":45.9294,"EPHEMERIS_TYPE":0,"NORAD_CAT_ID":68694,"ELEMENT_SET_NO":999,"REV_AT_EPOCH":1432,"BSTAR":0.00017571392,"MEAN_MOTION_DOT":0.00002718,"MEAN_MOTION_DDOT":0},{"OBJECT_NAME":"JILIN GAOFEN OBJECT E","OBJECT_ID":"2026-080E","EPOCH":"2026-07-18T05:09:45.148032","CLASSIFICATION_TYPE":"U","MEAN_MOTION":15.08936917,"ECCENTRICITY":0.00136016,"INCLINATION":97.6631,"RA_OF_ASC_NODE":274.7977,"ARG_OF_PERICENTER":324.9722,"MEAN_ANOMALY":35.0611,"EPHEMERIS_TYPE":0,"NORAD_CAT_ID":68695,"ELEMENT_SET_NO":999,"REV_AT_EPOCH":1430,"BSTAR":0.00016995672,"MEAN_MOTION_DOT":0.00002622,"MEAN_MOTION_DDOT":0},{"OBJECT_NAME":"JILIN GAOFEN OBJECT F","OBJECT_ID":"2026-080F","EPOCH":"2026-07-18T06:43:52.908672","CLASSIFICATION_TYPE":"U","MEAN_MOTION":15.08920936,"ECCENTRICITY":0.00122665,"INCLINATION":97.6602,"RA_OF_ASC_NODE":274.8302,"ARG_OF_PERICENTER":327.6328,"MEAN_ANOMALY":32.4146,"EPHEMERIS_TYPE":0,"NORAD_CAT_ID":68696,"ELEMENT_SET_NO":999,"REV_AT_EPOCH":1431,"BSTAR":0.00016050564,"MEAN_MOTION_DOT":0.00002471,"MEAN_MOTION_DDOT":0},{"OBJECT_NAME":"JILIN GAOFEN OBJECT G","OBJECT_ID":"2026-080G","EPOCH":"2026-07-18T06:23:51.457056","CLASSIFICATION_TYPE":"U","MEAN_MOTION":15.08913176,"ECCENTRICITY":0.00144252,"INCLINATION":97.6648,"RA_OF_ASC_NODE":274.9024,"ARG_OF_PERICENTER":324.2062,"MEAN_ANOMALY":35.8199,"EPHEMERIS_TYPE":0,"NORAD_CAT_ID":68697,"ELEMENT_SET_NO":999,"REV_AT_EPOCH":1431,"BSTAR":0.00014548825,"MEAN_MOTION_DOT":0.00002234,"MEAN_MOTION_DDOT":0},{"OBJECT_NAME":"JILIN GAOFEN OBJECT H","OBJECT_ID":"2026-080H","EPOCH":"2026-07-17T17:36:55.714752","CLASSIFICATION_TYPE":"U","MEAN_MOTION":15.08938632,"ECCENTRICITY":0.00147724,"INCLINATION":97.6635,"RA_OF_ASC_NODE":274.3604,"ARG_OF_PERICENTER":328.0239,"MEAN_ANOMALY":32.0092,"EPHEMERIS_TYPE":0,"NORAD_CAT_ID":68698,"ELEMENT_SET_NO":999,"REV_AT_EPOCH":1423,"BSTAR":0.00013742567,"MEAN_MOTION_DOT":0.00002108,"MEAN_MOTION_DDOT":0}]}
